CENTAURI-1              
1 43809U 18099BD  26189.38714093  .00002755  00000+0  14426-3 0  9990
2 43809  97.4210 240.6527 0012503 251.2515 108.7362 15.16580153415717
CENTAURI-6              
1 59451U 24066K   26189.22953108  .00002409  00000+0  17938-3 0  9993
2 59451  45.6048 144.5899 0001359 239.7032 120.3718 15.05992948123298
CENTAURI-7              
1 62708U 25009DD  26189.17100888  .00002927  00000+0  25321-3 0  9993
2 62708  97.7086 269.1793 0002758 115.2331 244.9178 14.97939827 80605
CENTAURI-8              
1 62714U 25009DK  26189.53348647  .00001461  00000+0  12902-3 0  9990
2 62714  97.7044 269.3633 0002874  84.3145 275.8405 14.97906436 80672
