{"fetched_at":"2026-07-08T17:59:40.526Z","source":"https://celestrak.org/NORAD/elements/gp.php?NAME=CENTAURI&FORMAT=JSON","constellation":"myriota","records":[{"OBJECT_NAME":"CENTAURI-1","OBJECT_ID":"2018-099BD","EPOCH":"2026-07-08T09:17:28.976352","CLASSIFICATION_TYPE":"U","MEAN_MOTION":15.16580153,"ECCENTRICITY":0.0012503,"INCLINATION":97.421,"RA_OF_ASC_NODE":240.6527,"ARG_OF_PERICENTER":251.2515,"MEAN_ANOMALY":108.7362,"EPHEMERIS_TYPE":0,"NORAD_CAT_ID":43809,"ELEMENT_SET_NO":999,"REV_AT_EPOCH":41571,"BSTAR":0.00014426,"MEAN_MOTION_DOT":0.00002755,"MEAN_MOTION_DDOT":0},{"OBJECT_NAME":"CENTAURI-6","OBJECT_ID":"2024-066K","EPOCH":"2026-07-08T05:30:31.485312","CLASSIFICATION_TYPE":"U","MEAN_MOTION":15.05992948,"ECCENTRICITY":0.0001359,"INCLINATION":45.6048,"RA_OF_ASC_NODE":144.5899,"ARG_OF_PERICENTER":239.7032,"MEAN_ANOMALY":120.3718,"EPHEMERIS_TYPE":0,"NORAD_CAT_ID":59451,"ELEMENT_SET_NO":999,"REV_AT_EPOCH":12329,"BSTAR":0.00017938,"MEAN_MOTION_DOT":0.00002409,"MEAN_MOTION_DDOT":0},{"OBJECT_NAME":"CENTAURI-7","OBJECT_ID":"2025-009DD","EPOCH":"2026-07-08T04:06:15.167232","CLASSIFICATION_TYPE":"U","MEAN_MOTION":14.97939827,"ECCENTRICITY":0.0002758,"INCLINATION":97.7086,"RA_OF_ASC_NODE":269.1793,"ARG_OF_PERICENTER":115.2331,"MEAN_ANOMALY":244.9178,"EPHEMERIS_TYPE":0,"NORAD_CAT_ID":62708,"ELEMENT_SET_NO":999,"REV_AT_EPOCH":8060,"BSTAR":0.00025321,"MEAN_MOTION_DOT":0.00002927,"MEAN_MOTION_DDOT":0},{"OBJECT_NAME":"CENTAURI-8","OBJECT_ID":"2025-009DK","EPOCH":"2026-07-08T12:48:13.231008","CLASSIFICATION_TYPE":"U","MEAN_MOTION":14.97906436,"ECCENTRICITY":0.0002874,"INCLINATION":97.7044,"RA_OF_ASC_NODE":269.3633,"ARG_OF_PERICENTER":84.3145,"MEAN_ANOMALY":275.8405,"EPHEMERIS_TYPE":0,"NORAD_CAT_ID":62714,"ELEMENT_SET_NO":999,"REV_AT_EPOCH":8067,"BSTAR":0.00012902,"MEAN_MOTION_DOT":0.00001461,"MEAN_MOTION_DDOT":0}]}
